MTI                     
1 26102U 00014A   19067.58206661  .00003713  00000-0  62966-4 0  9990
2 26102  97.5636 280.7425 0009522 133.3294 226.8756 15.52172145 52017
CFESAT                  
1 30777U 07006F   19068.00917300  .00002558  00000-0  76093-4 0  9990
2 30777  35.4259  49.4752 0006519 277.6165  82.3820 15.34539530664704
SPIRALE A               
1 33751U 09008C   19067.79497804  .00000012  00000-0  18510-4 0  9999
2 33751   2.0587 287.9144 5424054 185.4985 164.1114  4.58701084139853
SPIRALE B               
1 33752U 09008D   19068.08651981  .00008507  00000-0  13513-2 0  9994
2 33752   2.1125  30.5140 6939097 327.7690   4.3905  2.73347271 91965
SAPPHIRE                
1 39088U 13009C   19067.54421547 -.00000026  00000-0  60997-5 0  9991
2 39088  98.5073 272.4089 0010546 227.4185 132.6111 14.34188193315577
